

*******************************************************************************
Ephemeris / WWW_USER Fri Feb  3 05:08:25 2023 Pasadena, USA      / Horizons    
*******************************************************************************
Target body name: Neptune (899)                   {source: nep102_merged}
Center body name: Earth (399)                     {source: DE441}
Center-site name: GEOCENTRIC
*******************************************************************************
Start time      : A.D. 2023-Jan-01 00:00:00.0000 UT      
Stop  time      : A.D. 2030-Dec-31 00:00:00.0000 UT      
Step-size       : 1440 minutes
*******************************************************************************
Target pole/equ : IAU_NEPTUNE                     {West-longitude positive}
Target radii    : 24764.0 x 24764.0 x 24341.0 km  {Equator, meridian, pole}    
Center geodetic : 0.00000000,0.00000000,0.0000000 {E-lon(deg),Lat(deg),Alt(km)}
Center cylindric: 0.00000000,0.00000000,0.0000000 {E-lon(deg),Dxy(km),Dz(km)}
Center pole/equ : ITRF93                          {East-longitude positive}
Center radii    : 6378.1 x 6378.1 x 6356.8 km     {Equator, meridian, pole}    
Target primary  : Sun (R_eq= 696000.000) km
Vis. interferer : MOON (R_eq= 1737.400) km        {source: DE441}
Rel. light bend : Sun                             {source: DE441}
Rel. lght bnd GM: 1.3271E+11 km^3/s^2                                          
Atmos refraction: NO (AIRLESS)
RA format       : HMS
Time format     : JD  
EOP file        : eop.230201.p230427                                           
EOP coverage    : DATA-BASED 1962-JAN-20 TO 2023-FEB-01. PREDICTS-> 2023-APR-26
Units conversion: 1 au= 149597870.700 km, c= 299792.458 km/s, 1 day= 86400.0 s 
Table cut-offs 1: Elevation (-90.0deg=NO ),Airmass (>38.000=NO), Daylight (NO )
Table cut-offs 2: Solar elongation (  0.0,180.0=NO ),Local Hour Angle( 0.0=NO )
Table cut-offs 3: RA/DEC angular rate (     0.0=NO )                           
Table format    : Comma Separated Values (spreadsheet)
************************************************************************************************************************************************************************************
Date_________JDUT, , , R.A._(ICRF), DEC__(ICRF),    APmag,  S-brt,             delta,     deldot,     S-O-T,/r,     S-T-O,  Sky_motion, Sky_mot_PA, RelVel-ANG, Lun_Sky_Brt  sky_SNR
************************************************************************************************************************************************************************************
$$SOE
2460185.500000000, , , 23 49 13.36, -02 33 07.3,    7.688,  9.286,  28.9644510837650,-10.3600811,  158.5413,/L,    0.7139,   0.0631358,  245.67077,  -25.11571,        n.a.     n.a.
2460186.500000000, , , 23 49 07.81, -02 33 44.9,    7.688,  9.286,  28.9586049292402, -9.8841735,  159.5304,/L,    0.6826,   0.0636670,  245.70613,  -23.92199,        n.a.     n.a.
2460187.500000000, , , 23 49 02.21, -02 34 22.7,    7.687,  9.286,  28.9530344638449, -9.4053824,  160.5199,/L,    0.6511,   0.0641763,  245.74076,  -22.72621,        n.a.     n.a.
2460188.500000000, , , 23 48 56.56, -02 35 00.8,    7.687,  9.286,  28.9477413771178, -8.9236158,  161.5098,/L,    0.6194,   0.0646638,  245.77465,  -21.52797,        n.a.     n.a.
2460189.500000000, , , 23 48 50.87, -02 35 39.1,    7.687,  9.286,  28.9427274216832, -8.4387549,  162.5002,/L,    0.5875,   0.0651294,  245.80785,  -20.32688,        n.a.     n.a.
2460190.500000000, , , 23 48 45.14, -02 36 17.6,    7.686,  9.286,  28.9379944158059, -7.9506982,  163.4909,/L,    0.5554,   0.0655727,  245.84037,  -19.12264,        n.a.     n.a.
2460191.500000000, , , 23 48 39.37, -02 36 56.3,    7.686,  9.286,  28.9335442224939, -7.4593963,  164.4820,/L,    0.5231,   0.0659931,  245.87225,  -17.91513,        n.a.     n.a.
2460192.500000000, , , 23 48 33.57, -02 37 35.3,    7.686,  9.286,  28.9293787145009, -6.9648656,  165.4733,/L,    0.4908,   0.0663899,  245.90356,  -16.70431,        n.a.     n.a.
2460193.500000000, , , 23 48 27.72, -02 38 14.4,    7.685,  9.286,  28.9254997365261, -6.4671851,  166.4648,/L,    0.4582,   0.0667626,  245.93433,  -15.49030,        n.a.     n.a.
2460194.500000000, , , 23 48 21.85, -02 38 53.7,    7.685,  9.286,  28.9219090726668, -5.9664832,  167.4563,/L,    0.4256,   0.0671104,  245.96463,  -14.27328,        n.a.     n.a.
2460195.500000000, , , 23 48 15.94, -02 39 33.1,    7.685,  9.286,  28.9186084223223, -5.4629225,  168.4478,/L,    0.3928,   0.0674328,  245.99450,  -13.05345,        n.a.     n.a.
2460196.500000000, , , 23 48 10.01, -02 40 12.6,    7.684,  9.286,  28.9155993840761, -4.9566878,  169.4388,/L,    0.3600,   0.0677292,  246.02400,  -11.83106,        n.a.     n.a.
2460197.500000000, , , 23 48 04.05, -02 40 52.3,    7.684,  9.286,  28.9128834453758, -4.4479781,  170.4291,/L,    0.3270,   0.0679993,  246.05317,  -10.60635,        n.a.     n.a.
2460198.500000000, , , 23 47 58.06, -02 41 32.1,    7.684,  9.286,  28.9104619755794, -3.9370030,  171.4182,/L,    0.2941,   0.0682426,  246.08206,  -9.379554,        n.a.     n.a.
2460199.500000000, , , 23 47 52.06, -02 42 12.0,    7.684,  9.286,  28.9083362204319, -3.4239809,  172.4054,/L,    0.2611,   0.0684587,  246.11071,  -8.150923,        n.a.     n.a.
2460200.500000000, , , 23 47 46.03, -02 42 51.9,    7.684,  9.286,  28.9065072967438, -2.9091400,  173.3894,/L,    0.2282,   0.0686474,  246.13916,  -6.920711,        n.a.     n.a.
2460201.500000000, , , 23 47 39.99, -02 43 31.9,    7.684,  9.286,  28.9049761733271, -2.3927751,  174.3682,/L,    0.1953,   0.0688081,  246.16776,  -5.689339,        n.a.     n.a.
2460202.500000000, , , 23 47 33.93, -02 44 11.9,    7.684,  9.286,  28.9037436643561, -1.8750975,  175.3381,/L,    0.1627,   0.0689408,  246.19630,  -4.456966,        n.a.     n.a.
2460203.500000000, , , 23 47 27.87, -02 44 52.0,    7.684,  9.286,  28.9028104593496, -1.3563552,  176.2918,/L,    0.1306,   0.0690454,  246.22476,  -3.223853,        n.a.     n.a.
2460204.500000000, , , 23 47 21.79, -02 45 32.1,    7.683,  9.286,  28.9021770964838, -0.8368152,  177.2118,/L,    0.0994,   0.0691217,  246.25318,  -1.990304,        n.a.     n.a.
2460205.500000000, , , 23 47 15.70, -02 46 12.1,    7.683,  9.286,  28.9018439579572, -0.3167501,  178.0490,/L,    0.0705,   0.0691698,  246.28157,  -0.756633,        n.a.     n.a.
2460206.500000000, , , 23 47 09.61, -02 46 52.2,    7.683,  9.286,  28.9018112674737,  0.2035644,  178.6394,/L,    0.0483,   0.0691895,  246.30998,  0.4768389,        n.a.     n.a.
2460207.500000000, , , 23 47 03.52, -02 47 32.2,    7.683,  9.286,  28.9020790895845,  0.7238533,  178.6175,/L,    0.0444,   0.0691811,  246.33840,  1.7097901,        n.a.     n.a.
2460208.500000000, , , 23 46 57.43, -02 48 12.1,    7.684,  9.286,  28.9026473310903,  1.2438462,  178.0026,/T,    0.0623,   0.0691447,  246.36687,  2.9418987,        n.a.     n.a.
2460209.500000000, , , 23 46 51.35, -02 48 51.9,    7.684,  9.286,  28.9035157449063,  1.7632815,  177.1560,/T,    0.0898,   0.0690805,  246.39537,  4.1728509,        n.a.     n.a.
2460210.500000000, , , 23 46 45.27, -02 49 31.7,    7.684,  9.286,  28.9046839372814,  2.2819142,  176.2303,/T,    0.1205,   0.0689890,  246.42392,  5.4023503,        n.a.     n.a.
2460211.500000000, , , 23 46 39.19, -02 50 11.4,    7.684,  9.286,  28.9061513799217,  2.7995256,  175.2714,/T,    0.1524,   0.0688705,  246.45252,  6.6301357,        n.a.     n.a.
2460212.500000000, , , 23 46 33.13, -02 50 50.9,    7.684,  9.286,  28.9079174290344,  3.3159368,  174.2960,/T,    0.1849,   0.0687256,  246.48113,  7.8560065,        n.a.     n.a.
2460213.500000000, , , 23 46 27.08, -02 51 30.3,    7.684,  9.286,  28.9099813529286,  3.8310248,  173.3109,/T,    0.2176,   0.0685548,  246.50977,  9.0798558,        n.a.     n.a.
2460214.500000000, , , 23 46 21.04, -02 52 09.6,    7.684,  9.286,  28.9123423678585,  4.3447338,  172.3199,/T,    0.2505,   0.0683589,  246.53839,  10.301701,        n.a.     n.a.
2460215.500000000, , , 23 46 15.02, -02 52 48.7,    7.684,  9.286,  28.9149996780680,  4.8570768,  171.3247,/T,    0.2834,   0.0681382,  246.56699,  11.521700,        n.a.     n.a.
2460216.500000000, , , 23 46 09.02, -02 53 27.6,    7.685,  9.286,  28.9179525117430,  5.3681195,  170.3265,/T,    0.3164,   0.0678932,  246.59557,  12.740130,        n.a.     n.a.
2460217.500000000, , , 23 46 03.04, -02 54 06.3,    7.685,  9.286,  28.9212001426422,  5.8779476,  169.3260,/T,    0.3493,   0.0676237,  246.62412,  13.957341,        n.a.     n.a.
2460218.500000000, , , 23 45 57.09, -02 54 44.8,    7.685,  9.286,  28.9247418901495,  6.3866270,  168.3237,/T,    0.3821,   0.0673298,  246.65268,  15.173677,        n.a.     n.a.
2460219.500000000, , , 23 45 51.16, -02 55 23.1,    7.685,  9.286,  28.9285770978177,  6.8941713,  167.3198,/T,    0.4148,   0.0670110,  246.68126,  16.389412,        n.a.     n.a.
2460220.500000000, , , 23 45 45.26, -02 56 01.2,    7.686,  9.286,  28.9327050979247,  7.4005269,  166.3147,/T,    0.4475,   0.0666670,  246.70993,  17.604709,        n.a.     n.a.
2460221.500000000, , , 23 45 39.39, -02 56 39.0,    7.686,  9.286,  28.9371252016003,  7.9056965,  165.3084,/T,    0.4800,   0.0662973,  246.73844,  18.819869,        n.a.     n.a.
2460222.500000000, , , 23 45 33.55, -02 57 16.5,    7.686,  9.286,  28.9418366623323,  8.4094198,  164.3011,/T,    0.5124,   0.0659015,  246.76708,  20.034651,        n.a.     n.a.
2460223.500000000, , , 23 45 27.75, -02 57 53.8,    7.687,  9.286,  28.9468385754692,  8.9114722,  163.2929,/T,    0.5447,   0.0654793,  246.79598,  21.248892,        n.a.     n.a.
2460224.500000000, , , 23 45 21.98, -02 58 30.8,    7.687,  9.286,  28.9521299131061,  9.4116338,  162.2839,/T,    0.5768,   0.0650306,  246.82518,  22.462443,        n.a.     n.a.
